FLOCK 2K-26             
1 42883U 17042BL  17345.70380024  .00009448  00000-0  27960-3 0  9995
2 42883  96.9941 246.8434 0014709  62.3279 297.9456 15.34982714 22860
